[{"OBJECT_NAME":"STARLINK-36737","OBJECT_ID":"2026-026V","EPOCH":"2026-03-09T22:00:01.999584","MEAN_MOTION":15.4917276,"ECCENTRICITY":0.00017552,"INCLINATION":97.284,"RA_OF_ASC_NODE":123.5348,"ARG_OF_PERICENTER":84.3492,"MEAN_ANOMALY":200.632,"EPHEMERIS_TYPE":0,"CLASSIFICATION_TYPE":"U","NORAD_CAT_ID":67740,"ELEMENT_SET_NO":999,"REV_AT_EPOCH":535,"BSTAR":-0.038918672,"MEAN_MOTION_DOT":-0.01901921,"MEAN_MOTION_DDOT":0},{"OBJECT_NAME":"BREEZE-KM R\/B","OBJECT_ID":"2017-064B","EPOCH":"2026-03-09T23:37:28.009344","MEAN_MOTION":15.19279068,"ECCENTRICITY":0.01790923,"INCLINATION":98.7537,"RA_OF_ASC_NODE":74.9596,"ARG_OF_PERICENTER":357.1764,"MEAN_ANOMALY":2.8439,"EPHEMERIS_TYPE":0,"CLASSIFICATION_TYPE":"U","NORAD_CAT_ID":42970,"ELEMENT_SET_NO":999,"REV_AT_EPOCH":45981,"BSTAR":0.00038198457,"MEAN_MOTION_DOT":0.00012295,"MEAN_MOTION_DDOT":0}]
